[{"OBJECT_NAME":"YOUTHSAT","OBJECT_ID":"2011-015B","EPOCH":"2026-03-09T21:54:01.247616","MEAN_MOTION":14.25582623,"ECCENTRICITY":0.00132956,"INCLINATION":98.3595,"RA_OF_ASC_NODE":47.4945,"ARG_OF_PERICENTER":274.2418,"MEAN_ANOMALY":140.1556,"EPHEMERIS_TYPE":0,"CLASSIFICATION_TYPE":"U","NORAD_CAT_ID":37388,"ELEMENT_SET_NO":999,"REV_AT_EPOCH":77349,"BSTAR":0.00014902974,"MEAN_MOTION_DOT":3.12e-6,"MEAN_MOTION_DDOT":0},{"OBJECT_NAME":"METEOR 2-8 DEB","OBJECT_ID":"1982-025AM","EPOCH":"2026-02-11T12:32:59.278848","MEAN_MOTION":14.29220046,"ECCENTRICITY":0.00093496,"INCLINATION":82.5431,"RA_OF_ASC_NODE":336.7273,"ARG_OF_PERICENTER":236.5313,"MEAN_ANOMALY":123.4979,"EPHEMERIS_TYPE":0,"CLASSIFICATION_TYPE":"U","NORAD_CAT_ID":36351,"ELEMENT_SET_NO":999,"REV_AT_EPOCH":70617,"BSTAR":0.0018775499,"MEAN_MOTION_DOT":4.787e-5,"MEAN_MOTION_DDOT":0}]
